NORAD_CAT_ID,OBJECT_NAME,OBJECT_TYPE,EPOCH,MEAN_MOTION,ECCENTRICITY,INCLINATION,RA_OF_ASC_NODE,ARG_OF_PERICENTER,MEAN_ANOMALY,BSTAR,MEAN_MOTION_DOT,MEAN_MOTION_DDOT,TLE_LINE0,TLE_LINE1,TLE_LINE2,SEMIMAJOR_AXIS,PERIOD,APOGEE,PERIGEE,DECAYED
54072.0,STARLINK-5144,PAYLOAD,2022-12-24 20:51:56,15.08843779,0.0001898,53.2172,199.8731,54.3073,305.8096,5.7853e-05,6.33e-06,0.0,0 STARLINK-5144,1 54072U 22136X   22358.86940215  .00000633  00000-0  57853-4 0  9991,2 54072  53.2172 199.8731 0001898  54.3073 305.8096 15.08843779 10099,6917.869000000002,95.437,541.047,538.4209999999998,0.0
54072.0,STARLINK-5144,PAYLOAD,2022-12-25 06:24:15,15.08842291,0.0001761999999999,53.2172,198.08900000000003,54.8987,305.217,0.00016037,2.265e-05,0.0,0 STARLINK-5144,1 54072U 22136X   22359.26684129  .00002265  00000-0  16037-3 0  9996,2 54072  53.2172 198.0890 0001762  54.8987 305.2170 15.08842291 10157,6917.873000000001,95.437,540.957,538.519,0.0
54072.0,STARLINK-5144,PAYLOAD,2022-12-25 15:56:34,15.0883494,0.0001938,53.2162,196.3053,50.8718,309.2447,4.4972e-05,4.28e-06,0.0,0 STARLINK-5144,1 54072U 22136X   22359.66428597  .00000428  00000-0  44972-4 0  9994,2 54072  53.2162 196.3053 0001938  50.8718 309.2447 15.08834940 10693,6917.896,95.438,541.102,538.42,0.0
54072.0,STARLINK-5144,PAYLOAD,2022-12-26 01:28:53,15.088293599999998,0.0001874,53.2174,194.5209,49.8014,310.3142,2.9312e-05,1.78e-06,0.0,0 STARLINK-5144,1 54072U 22136X   22360.06173481  .00000178  00000-0  29312-4 0  9992,2 54072  53.2174 194.5209 0001874  49.8014 310.3142 15.08829360 10757,6917.913000000001,95.438,541.0740000000002,538.481,0.0
54072.0,STARLINK-5144,PAYLOAD,2022-12-26 12:36:35,15.08835091,0.0001896,53.2175,192.4392,50.328,309.7879,4.0196e-05,3.52e-06,0.0,0 STARLINK-5144,1 54072U 22136X   22360.52541350  .00000352  00000-0  40196-4 0  9994,2 54072  53.2175 192.4392 0001896  50.3280 309.7879 15.08835091 10346,6917.895,95.438,541.072,538.4490000000002,0.0
54072.0,STARLINK-5144,PAYLOAD,2022-12-26 20:33:31,15.08838856,0.0001889,53.2175,190.9523,50.5336,309.5823,3.3234e-05,2.41e-06,0.0,0 STARLINK-5144,1 54072U 22136X   22360.85661204  .00000241  00000-0  33234-4 0  9993,2 54072  53.2175 190.9523 0001889  50.5336 309.5823 15.08838856 10878,6917.884,95.438,541.056,538.442,0.0
54072.0,STARLINK-5144,PAYLOAD,2022-12-27 12:27:22,15.08841845,0.0001911,53.2173,187.9788,50.3724,309.7436,3.0532e-05,1.98e-06,0.0,0 STARLINK-5144,1 54072U 22136X   22361.51901055  .00000198  00000-0  30532-4 0  9997,2 54072  53.2173 187.9788 0001911  50.3724 309.7436 15.08841845 10492,6917.875,95.437,541.062,538.418,0.0
54072.0,STARLINK-5144,PAYLOAD,2022-12-27 18:48:54,15.08840824,0.0001899,53.2173,186.7893,50.5116,309.6044,0.00010746,1.423e-05,0.0,0 STARLINK-5144,1 54072U 22136X   22361.78396974  .00001423  00000-0  10746-3 0  9990,2 54072  53.2173 186.7893 0001899  50.5116 309.6044 15.08840824 10533,6917.878000000002,95.438,541.057,538.429,0.0
54072.0,STARLINK-5144,PAYLOAD,2022-12-27 21:59:41,15.08839378,0.0001929,53.2173,186.1948,50.7505,309.3658,0.00015033,2.105e-05,0.0,0 STARLINK-5144,1 54072U 22136X   22361.91645048  .00002105  00000-0  15033-3 0  9996,2 54072  53.2173 186.1948 0001929  50.7505 309.3658 15.08839378 11032,6917.882,95.438,541.082,538.413,0.0
54072.0,STARLINK-5144,PAYLOAD,2022-12-29 12:08:56,15.0884268,0.0002,53.2169,179.0584,51.5381,308.5791,7.5778e-05,9.18e-06,0.0,0 STARLINK-5144,1 54072U 22136X   22363.50620896  .00000918  00000-0  75778-4 0  9990,2 54072  53.2169 179.0584 0002000  51.5381 308.5791 15.08842680 11271,6917.871999999999,95.437,541.121,538.354,0.0
54072.0,STARLINK-5144,PAYLOAD,2022-12-30 11:59:42,15.08847642,0.0001816,53.2186,174.5958,69.35300000000001,290.7657,4.4922e-05,4.27e-06,0.0,0 STARLINK-5144,1 54072U 22136X   22364.49980323  .00000427  00000-0  44922-4 0  9995,2 54072  53.2186 174.5958 0001816  69.3530 290.7657 15.08847642 10941,6917.857,95.437,540.9780000000002,538.466,0.0
54072.0,STARLINK-5144,PAYLOAD,2022-12-30 19:56:38,15.08853981,0.0001961,53.2171,173.1107,52.714,307.403,7.6507e-05,9.3e-06,0.0,0 STARLINK-5144,1 54072U 22136X   22364.83099799  .00000930  00000-0  76507-4 0  9994,2 54072  53.2171 173.1107 0001961  52.7140 307.4030 15.08853981 11473,6917.8380000000025,95.437,541.059,538.346,0.0
54072.0,STARLINK-5144,PAYLOAD,2022-12-31 03:53:34,15.08840724,0.0002055,53.2194,171.6212,49.7655,310.3517,-2.4937e-05,-6.85e-06,0.0,0 STARLINK-5144,1 54072U 22136X   22365.16220777 -.00000685  00000-0 -24937-4 0  9992,2 54072  53.2194 171.6212 0002055  49.7655 310.3517 15.08840724 11520,6917.878000000002,95.438,541.165,538.322,0.0
54072.0,STARLINK-5144,PAYLOAD,2022-12-31 11:50:31,15.08827986,0.0001935,53.2168,170.136,60.662,299.4565,-8.3178e-06,-4.2e-06,0.0,0 STARLINK-5144,1 54072U 22136X   22365.49341731 -.00000420  00000-0 -83178-5 0  9992,2 54072  53.2168 170.1360 0001935  60.6620 299.4565 15.08827986 11579,6917.917,95.438,541.121,538.443,0.0
54072.0,STARLINK-5144,PAYLOAD,2022-12-31 19:47:27,15.08828967,0.0001919,53.218,168.6513,56.9686,303.1491,-2.5539e-06,-3.29e-06,0.0,0 STARLINK-5144,1 54072U 22136X   22365.82461981 -.00000329  00000-0 -25539-5 0  9994,2 54072  53.2180 168.6513 0001919  56.9686 303.1491 15.08828967 11141,6917.9140000000025,95.438,541.107,538.452,0.0
54072.0,STARLINK-5144,PAYLOAD,2023-01-01 13:16:39,15.08861859,0.0001938,53.2165,165.3793,51.3891,308.7274,0.00032638,4.913e-05,0.0,0 STARLINK-5144,1 54072U 22136X   23001.55323744  .00004913  00000-0  32638-3 0  9993,2 54072  53.2165 165.3793 0001938  51.3891 308.7274 15.08861859 11738,6917.814,95.436,541.019,538.3380000000002,0.0
54072.0,STARLINK-5144,PAYLOAD,2023-01-01 21:13:33,15.088827800000002,0.0001684,53.2162,163.8927,54.0317,306.0831,0.00058746,9.085e-05,0.0,0 STARLINK-5144,1 54072U 22136X   23001.88442119  .00009085  00000-0  58746-3 0  9990,2 54072  53.2162 163.8927 0001684  54.0317 306.0831 15.08882780 11307,6917.75,95.435,540.78,538.45,0.0
54072.0,STARLINK-5144,PAYLOAD,2023-01-02 03:35:08,15.08843099,0.0002041,53.2171,162.7029,65.0353,295.0851,-1.0207e-05,-4.51e-06,0.0,0 STARLINK-5144,1 54072U 22136X   23002.14940125 -.00000451  00000-0 -10207-4 0  9991,2 54072  53.2171 162.7029 0002041  65.0353 295.0851 15.08843099 11824,6917.871,95.437,541.148,538.3240000000002,0.0
54072.0,STARLINK-5144,PAYLOAD,2023-01-02 11:32:04,15.088383,0.0002289,53.217,161.2166,69.929,290.1949,0.00013887,1.922e-05,0.0,0 STARLINK-5144,1 54072U 22136X   23002.48060609  .00001922  00000-0  13887-3 0  9996,2 54072  53.2170 161.2166 0002289  69.9290 290.1949 15.08838300 11391,6917.886,95.438,541.3340000000002,538.1669999999998,0.0
54072.0,STARLINK-5144,PAYLOAD,2023-01-02 19:29:00,15.08828545,0.0001839,53.2176,159.7302,65.9811,294.1373,-6.6238e-05,-1.342e-05,0.0,0 STARLINK-5144,1 54072U 22136X   23002.81181115 -.00001342  00000-0 -66238-4 0  9996,2 54072  53.2176 159.7302 0001839  65.9811 294.1373 15.08828545 11920,6917.915,95.438,541.053,538.508,0.0
54072.0,STARLINK-5144,PAYLOAD,2023-01-03 09:47:28,15.08828043,0.0001207,53.2179,157.0539,66.5675,293.5444,-9.5654e-05,-1.809e-05,0.0,0 STARLINK-5144,1 54072U 22136X   23003.40797286 -.00001809  00000-0 -95654-4 0  9996,2 54072  53.2179 157.0539 0001207  66.5675 293.5444 15.08828043 11532,6917.917,95.438,540.617,538.947,0.0
54072.0,STARLINK-5144,PAYLOAD,2023-01-03 19:19:47,15.0883747,0.00015,53.2164,155.269,73.0265,287.0891,-0.0002783,-4.714e-05,0.0,0 STARLINK-5144,1 54072U 22136X   23003.80540997 -.00004714  00000-0 -27830-3 0  9993,2 54072  53.2164 155.2690 0001500  73.0265 287.0891 15.08837470 12076,6917.888000000001,95.438,540.7909999999998,538.715,0.0
54072.0,STARLINK-5144,PAYLOAD,2023-01-04 09:38:15,15.08839717,0.0001527,53.2165,152.5928,76.8063,283.31,1.972e-05,2.6e-07,0.0,0 STARLINK-5144,1 54072U 22136X   23004.40157280  .00000026  00000-0  19720-4 0  9999,2 54072  53.2165 152.5928 0001527  76.8063 283.3100 15.08839717 11681,6917.880999999999,95.438,540.803,538.69,0.0
54072.0,STARLINK-5144,PAYLOAD,2023-01-04 15:59:48,15.08841407,0.0001393,53.2164,151.4038,77.3135,282.8013,0.00043713,6.676e-05,0.0,0 STARLINK-5144,1 54072U 22136X   23004.66653606  .00006676  00000-0  43713-3 0  9995,2 54072  53.2164 151.4038 0001393  77.3135 282.8013 15.08841407 11728,6917.876,95.437,540.705,538.7769999999998,0.0
54072.0,STARLINK-5144,PAYLOAD,2023-01-05 07:53:40,15.08833165,0.0001403,53.2163,148.4303,84.2391,275.8762,0.00016739,2.377e-05,0.0,0 STARLINK-5144,1 54072U 22136X   23005.32894225  .00002377  00000-0  16739-3 0  9995,2 54072  53.2163 148.4303 0001403  84.2391 275.8762 15.08833165 12301,6917.901,95.438,540.737,538.7959999999998,0.0
54072.0,STARLINK-5144,PAYLOAD,2023-01-05 12:39:49,15.08836477,0.0001421,53.2162,147.5376,86.9683,273.1471,0.00015398,2.163e-05,0.0,0 STARLINK-5144,1 54072U 22136X   23005.52766173  .00002163  00000-0  15398-3 0  9990,2 54072  53.2162 147.5376 0001421  86.9683 273.1471 15.08836477 11859,6917.891,95.438,540.739,538.773,0.0
54072.0,STARLINK-5144,PAYLOAD,2023-01-05 15:50:36,15.08840895,0.0001405,53.2162,146.9431,83.6333,276.4819,0.00024546,3.621e-05,0.0,0 STARLINK-5144,1 54072U 22136X   23005.66014065  .00003621  00000-0  24546-3 0  9996,2 54072  53.2162 146.9431 0001405  83.6333 276.4819 15.08840895 11875,6917.878000000002,95.437,540.715,538.771,0.0
54072.0,STARLINK-5144,PAYLOAD,2023-01-06 12:30:36,15.08844563,0.0001429,53.2166,143.0777,84.2627,275.8528,0.00019423,2.805e-05,0.0,0 STARLINK-5144,1 54072U 22136X   23006.52125946  .00002805  00000-0  19423-3 0  9994,2 54072  53.2166 143.0777 0001429  84.2627 275.8528 15.08844563 12483,6917.866,95.437,540.72,538.743,0.0
54072.0,STARLINK-5144,PAYLOAD,2023-01-06 18:52:09,15.0885164,0.00014,53.2167,141.8881,84.4232,275.6919,0.00028142,4.195e-05,0.0,0 STARLINK-5144,1 54072U 22136X   23006.78621568  .00004195  00000-0  28142-3 0  9995,2 54072  53.2167 141.8881 0001400  84.4232 275.6919 15.08851640 12047,6917.845,95.437,540.678,538.741,0.0
